CCSDS_OMM_VERS = 2.0
CREATION_DATE  = 
ORIGINATOR     = 

OBJECT_NAME    = XRISM
OBJECT_ID      = 2023-137A
CENTER_NAME    = EARTH
REF_FRAME      = TEME
TIME_SYSTEM    = UTC
MEAN_ELEMENT_THEORY = SGP/SGP4

EPOCH          = 2026-04-02T19:23:27.863232
MEAN_MOTION    = 15.11792770
ECCENTRICITY   = .00078705
INCLINATION    = 31.0012
RA_OF_ASC_NODE = 127.6308
ARG_OF_PERICENTER = 281.4500
MEAN_ANOMALY   = 78.5255

EPHEMERIS_TYPE = 0
CLASSIFICATION_TYPE = U
NORAD_CAT_ID   = 57800
ELEMENT_SET_NO = 999
REV_AT_EPOCH   = 14144
BSTAR          = .52045606E-3
MEAN_MOTION_DOT = .9214E-4
MEAN_MOTION_DDOT = 0

CCSDS_OMM_VERS = 2.0
CREATION_DATE  = 
ORIGINATOR     = 

OBJECT_NAME    = ACS3
OBJECT_ID      = 2024-077B
CENTER_NAME    = EARTH
REF_FRAME      = TEME
TIME_SYSTEM    = UTC
MEAN_ELEMENT_THEORY = SGP/SGP4

EPOCH          = 2026-04-02T19:48:45.642528
MEAN_MOTION    = 13.90787918
ECCENTRICITY   = .00731999
INCLINATION    = 97.1957
RA_OF_ASC_NODE = 28.5131
ARG_OF_PERICENTER = 21.9712
MEAN_ANOMALY   = 338.4564

EPHEMERIS_TYPE = 0
CLASSIFICATION_TYPE = U
NORAD_CAT_ID   = 59588
ELEMENT_SET_NO = 999
REV_AT_EPOCH   = 9755
BSTAR          = .22328234E-1
MEAN_MOTION_DOT = .2859E-3
MEAN_MOTION_DDOT = 0

CCSDS_OMM_VERS = 2.0
CREATION_DATE  = 
ORIGINATOR     = 

OBJECT_NAME    = HTV-X1
OBJECT_ID      = 2025-241A
CENTER_NAME    = EARTH
REF_FRAME      = TEME
TIME_SYSTEM    = UTC
MEAN_ELEMENT_THEORY = SGP/SGP4

EPOCH          = 2026-04-02T21:49:02.167968
MEAN_MOTION    = 15.32509724
ECCENTRICITY   = .00072635
INCLINATION    = 51.6370
RA_OF_ASC_NODE = 316.3281
ARG_OF_PERICENTER = 266.2114
MEAN_ANOMALY   = 93.8037

EPHEMERIS_TYPE = 0
CLASSIFICATION_TYPE = U
NORAD_CAT_ID   = 66174
ELEMENT_SET_NO = 999
REV_AT_EPOCH   = 2465
BSTAR          = .12615874E-3
MEAN_MOTION_DOT = .3651E-4
MEAN_MOTION_DDOT = 0

CCSDS_OMM_VERS = 2.0
CREATION_DATE  = 
ORIGINATOR     = 

OBJECT_NAME    = SZ-21 MODULE
OBJECT_ID      = 2025-246C
CENTER_NAME    = EARTH
REF_FRAME      = TEME
TIME_SYSTEM    = UTC
MEAN_ELEMENT_THEORY = SGP/SGP4

EPOCH          = 2026-04-02T14:48:28.852704
MEAN_MOTION    = 15.70483759
ECCENTRICITY   = .00027799
INCLINATION    = 41.4746
RA_OF_ASC_NODE = 55.8608
ARG_OF_PERICENTER = 223.0414
MEAN_ANOMALY   = 137.0212

EPHEMERIS_TYPE = 0
CLASSIFICATION_TYPE = U
NORAD_CAT_ID   = 66515
ELEMENT_SET_NO = 999
REV_AT_EPOCH   = 2183
BSTAR          = .39708118E-3
MEAN_MOTION_DOT = .50186E-3
MEAN_MOTION_DDOT = 0

