XRISM                   
1 57800U 23137A   26092.80796138  .00009214  00000+0  52046-3 0  9992
2 57800  31.0012 127.6308 0007870 281.4500  78.5255 15.11792770141444
ACS3                    
1 59588U 24077B   26092.82552827  .00028590  00000+0  22328-1 0  9994
2 59588  97.1957  28.5131 0073199  21.9712 338.4564 13.90787918 97558
HTV-X1                  
1 66174U 25241A   26092.90905287  .00003651  00000+0  12616-3 0  9990
2 66174  51.6370 316.3281 0007263 266.2114  93.8037 15.32509724 24657
SZ-21 MODULE            
1 66515U 25246C   26092.61700061  .00050186  00000+0  39708-3 0  9991
2 66515  41.4746  55.8608 0002779 223.0414 137.0212 15.70483759 21833
